NORAD_CAT_ID,OBJECT_NAME,OBJECT_TYPE,EPOCH,MEAN_MOTION,ECCENTRICITY,INCLINATION,RA_OF_ASC_NODE,ARG_OF_PERICENTER,MEAN_ANOMALY,BSTAR,MEAN_MOTION_DOT,MEAN_MOTION_DDOT,TLE_LINE0,TLE_LINE1,TLE_LINE2,SEMIMAJOR_AXIS,PERIOD,APOGEE,PERIGEE,DECAYED
52588.0,STARLINK-3917,PAYLOAD,2024-02-16 23:07:23,15.08848241,0.0001515,53.2161,253.7501,83.1355,276.9809,0.00013013,1.784e-05,0.0,0 STARLINK-3917,1 52588U 22051BE  24047.96346962  .00001784  00000-0  13013-3 0  9991,2 52588  53.2161 253.7501 0001515  83.1355 276.9809 15.08848241 98175,6917.855,95.437,540.768,538.672,0.0
52588.0,STARLINK-3917,PAYLOAD,2024-02-17 07:04:19,15.08843202,0.0001379,53.2146,252.2635,78.8389,281.2758,8.6199e-05,1.084e-05,0.0,0 STARLINK-3917,1 52588U 22051BE  24048.29467389  .00001084  00000-0  86199-4 0  9994,2 52588  53.2146 252.2635 0001379  78.8389 281.2758 15.08843202 98226,6917.871,95.437,540.69,538.782,0.0
52588.0,STARLINK-3917,PAYLOAD,2024-02-17 19:47:25,15.08838315,0.0001458,53.2149,249.8835,81.7234,278.3924,1.4589e-05,-5.6e-07,0.0,0 STARLINK-3917,1 52588U 22051BE  24048.82459865 -.00000056  00000-0  14589-4 0  9996,2 52588  53.2149 249.8835 0001458  81.7234 278.3924 15.08838315 98303,6917.886,95.438,540.759,538.742,0.0
52588.0,STARLINK-3917,PAYLOAD,2024-02-18 13:16:39,15.08841607,0.0001487,53.2151,246.6118,83.5562,276.56,1.065e-05,-1.18e-06,0.0,0 STARLINK-3917,1 52588U 22051BE  24049.55323590 -.00000118  00000-0  10650-4 0  9996,2 52588  53.2151 246.6118 0001487  83.5562 276.5600 15.08841607 98344,6917.875,95.437,540.769,538.712,0.0
52588.0,STARLINK-3917,PAYLOAD,2024-02-18 19:38:11,15.08844612,0.0001555,53.2157,245.4215,86.5059,273.6111,3.6615e-05,2.95e-06,0.0,0 STARLINK-3917,1 52588U 22051BE  24049.81819286  .00000295  00000-0  36615-4 0  9991,2 52588  53.2157 245.4215 0001555  86.5059 273.6111 15.08844612 98451,6917.866,95.437,540.807,538.656,0.0
52588.0,STARLINK-3917,PAYLOAD,2024-02-19 19:28:59,15.08836163,0.0001474,53.2165,240.9612,83.7319,276.3841,5.9544e-05,6.6e-06,0.0,0 STARLINK-3917,1 52588U 22051BE  24050.81179880  .00000660  00000-0  59544-4 0  9994,2 52588  53.2165 240.9612 0001474  83.7319 276.3841 15.08836163 98608,6917.892,95.438,540.777,538.737,0.0
52588.0,STARLINK-3917,PAYLOAD,2024-02-19 22:39:45,15.08837937,0.0001457,53.2165,240.3663,83.0621,277.0537,4.6918e-05,4.59e-06,0.0,0 STARLINK-3917,1 52588U 22051BE  24050.94427780  .00000459  00000-0  46918-4 0  9990,2 52588  53.2165 240.3663 0001457  83.0621 277.0537 15.08837937 98552,6917.887,95.438,540.76,538.744,0.0
52588.0,STARLINK-3917,PAYLOAD,2024-02-20 11:22:51,15.08832704,0.0001423,53.216,237.9872,85.1017,275.0137,2.3427e-05,8.5e-07,0.0,0 STARLINK-3917,1 52588U 22051BE  24051.47420339  .00000085  00000-0  23427-4 0  9997,2 52588  53.2160 237.9872 0001423  85.1017 275.0137 15.08832704 98636,6917.903,95.438,540.752,538.783,0.0
52588.0,STARLINK-3917,PAYLOAD,2024-02-20 19:19:46,15.08839449,0.0001392,53.2163,236.5023,85.2941,274.821,3.6586e-05,2.94e-06,0.0,0 STARLINK-3917,1 52588U 22051BE  24051.80539786  .00000294  00000-0  36586-4 0  9993,2 52588  53.2163 236.5023 0001392  85.2941 274.8210 15.08839449 98681,6917.882,95.438,540.71,538.784,0.0
52588.0,STARLINK-3917,PAYLOAD,2024-02-21 04:52:05,15.08840105,0.0001332,53.2156,234.7172,81.8987,278.2156,3.3797e-05,2.5e-06,0.0,0 STARLINK-3917,1 52588U 22051BE  24052.20283830  .00000250  00000-0  33797-4 0  9997,2 52588  53.2156 234.7172 0001332  81.8987 278.2156 15.08840105 98817,6917.88,95.438,540.667,538.824,0.0
52588.0,STARLINK-3917,PAYLOAD,2024-02-21 12:49:01,15.08837422,0.0001278,53.2158,233.2304,83.0791,277.0346,1.6918e-05,-1.9e-07,0.0,0 STARLINK-3917,1 52588U 22051BE  24052.53404176 -.00000019  00000-0  16918-4 0  9991,2 52588  53.2158 233.2304 0001278  83.0791 277.0346 15.08837422 98799,6917.888,95.438,540.637,538.869,0.0
52588.0,STARLINK-3917,PAYLOAD,2024-02-21 19:10:33,15.08840933,0.0001282,53.216,232.0413,87.6188,272.4951,6.4078e-05,7.32e-06,0.0,0 STARLINK-3917,1 52588U 22051BE  24052.79899798  .00000732  00000-0  64078-4 0  9998,2 52588  53.2160 232.0413 0001282  87.6188 272.4951 15.08840933 98832,6917.878,95.437,540.629,538.856,0.0
52588.0,STARLINK-3917,PAYLOAD,2024-02-22 11:04:25,15.08821559,0.0001361,53.2172,229.069,95.2636,264.8512,0.00028386,4.23e-05,0.0,0 STARLINK-3917,1 52588U 22051BE  24053.46140631  .00004230  00000-0  28386-3 0  9996,2 52588  53.2172 229.0690 0001361  95.2636 264.8512 15.08821559 99000,6917.937,95.439,540.743,538.86,0.0
52588.0,STARLINK-3917,PAYLOAD,2024-02-22 19:01:20,15.08840546,0.0001528,53.2173,227.582,90.8186,269.2981,9.952e-06,-1.3e-06,0.0,0 STARLINK-3917,1 52588U 22051BE  24053.79260101 -.00000130  00000-0  99520-5 0  9993,2 52588  53.2173 227.5820 0001528  90.8186 269.2981 15.08840546 99056,6917.879,95.438,540.801,538.687,0.0
52588.0,STARLINK-3917,PAYLOAD,2024-02-23 20:27:30,15.08847575,0.0001397,53.2171,222.8236,85.8652,274.25,6.5413e-05,7.53e-06,0.0,0 STARLINK-3917,1 52588U 22051BE  24054.85243492  .00000753  00000-0  65413-4 0  9998,2 52588  53.2171 222.8236 0001397  85.8652 274.2500 15.08847575 99219,6917.857,95.437,540.689,538.756,0.0
52588.0,STARLINK-3917,PAYLOAD,2024-02-24 04:24:26,15.0884084,0.0001305,53.2167,221.3358,85.1085,275.0057,2.3232e-05,8.2e-07,0.0,0 STARLINK-3917,1 52588U 22051BE  24055.18363964  .00000082  00000-0  23232-4 0  9990,2 52588  53.2167 221.3358 0001305  85.1085 275.0057 15.08840840 99264,6917.878,95.438,540.646,538.84,0.0
52588.0,STARLINK-3917,PAYLOAD,2024-02-24 17:07:32,15.08835575,0.000149,53.2165,218.9566,85.4346,274.6816,2.5124e-05,1.12e-06,0.0,0 STARLINK-3917,1 52588U 22051BE  24055.71356494  .00000112  00000-0  25124-4 0  9995,2 52588  53.2165 218.9566 0001490  85.4346 274.6816 15.08835575 99349,6917.894,95.438,540.79,538.728,0.0
52588.0,STARLINK-3917,PAYLOAD,2024-02-25 13:47:33,15.08834548,0.0001666,53.2188,215.0911,90.1968,269.9215,-7.3133e-05,-1.452e-05,0.0,0 STARLINK-3917,1 52588U 22051BE  24056.57469073 -.00001452  00000-0 -73133-4 0  9991,2 52588  53.2188 215.0911 0001666  90.1968 269.9215 15.08834548 99400,6917.897,95.438,540.915,538.61,0.0
52588.0,STARLINK-3917,PAYLOAD,2024-02-25 16:58:19,15.08830198,0.0001601,53.2191,214.4965,91.3538,268.7638,-8.7665e-05,-1.683e-05,0.0,0 STARLINK-3917,1 52588U 22051BE  24056.70717411 -.00001683  00000-0 -87665-4 0  9999,2 52588  53.2191 214.4965 0001601  91.3538 268.7638 15.08830198 99493,6917.91,95.438,540.883,538.668,0.0
52588.0,STARLINK-3917,PAYLOAD,2024-02-26 13:38:20,15.08837836,0.0001388,53.2184,210.632,82.0484,278.0666,7.6228e-05,9.25e-06,0.0,0 STARLINK-3917,1 52588U 22051BE  24057.56828745  .00000925  00000-0  76228-4 0  9996,2 52588  53.2184 210.6320 0001388  82.0484 278.0666 15.08837836 99555,6917.887,95.438,540.712,538.792,0.0
52588.0,STARLINK-3917,PAYLOAD,2024-02-26 16:49:05,15.08842707,0.0001588,53.2179,210.0357,98.9676,261.1496,8.9799e-05,1.142e-05,0.0,0 STARLINK-3917,1 52588U 22051BE  24057.70076380  .00001142  00000-0  89799-4 0  9991,2 52588  53.2179 210.0357 0001588  98.9676 261.1496 15.08842707 99641,6917.872,95.437,540.836,538.639,0.0
52588.0,STARLINK-3917,PAYLOAD,2024-02-27 10:18:20,15.08833374,0.0001576,53.2183,206.765,102.7335,257.3833,0.00012795,1.749e-05,0.0,0 STARLINK-3917,1 52588U 22051BE  24058.42940862  .00001749  00000-0  12795-3 0  9990,2 52588  53.2183 206.7650 0001576 102.7335 257.3833 15.08833374 99751,6917.901,95.438,540.856,538.675,0.0
52588.0,STARLINK-3917,PAYLOAD,2024-02-27 13:29:07,15.08831486,0.0001577,53.2181,206.171,101.274,258.8429,0.00010811,1.433e-05,0.0,0 STARLINK-3917,1 52588U 22051BE  24058.56189127  .00001433  00000-0  10811-3 0  9991,2 52588  53.2181 206.1710 0001577 101.2740 258.8429 15.08831486 99709,6917.906,95.438,540.862,538.68,0.0
52588.0,STARLINK-3917,PAYLOAD,2024-02-27 16:39:53,15.08832724,0.0001454,53.218,205.5787,89.9331,270.1827,0.00010308,1.353e-05,0.0,0 STARLINK-3917,1 52588U 22051BE  24058.69437180  .00001353  00000-0  10308-3 0  9992,2 52588  53.2180 205.5787 0001454  89.9331 270.1827 15.08832724 99724,6917.903,95.438,540.773,538.762,0.0
52588.0,STARLINK-3917,PAYLOAD,2024-02-28 02:12:13,15.08829197,0.0001312,53.2168,203.7929,85.5272,274.587,7.273e-05,8.69e-06,0.0,0 STARLINK-3917,1 52588U 22051BE  24059.09181727  .00000869  00000-0  72730-4 0  9999,2 52588  53.2168 203.7929 0001312  85.5272 274.5870 15.08829197 99857,6917.913,95.438,540.686,538.871,0.0
52588.0,STARLINK-3917,PAYLOAD,2024-02-28 13:19:54,15.08830492,0.0001498,53.2169,201.7121,104.5137,255.6022,3.841e-05,3.23e-06,0.0,0 STARLINK-3917,1 52588U 22051BE  24059.55549733  .00000323  00000-0  38410-4 0  9997,2 52588  53.2169 201.7121 0001498 104.5137 255.6022 15.08830492 99856,6917.909,95.438,540.811,538.738,0.0
52588.0,STARLINK-3917,PAYLOAD,2024-02-28 16:30:40,15.08844931,0.0001376,53.2169,201.1175,99.3083,260.8065,-7.2187e-05,-1.437e-05,0.0,0 STARLINK-3917,1 52588U 22051BE  24059.68797302 -.00001437  00000-0 -72187-4 0  9996,2 52588  53.2169 201.1175 0001376  99.3083 260.8065 15.08844931 99943,6917.865,95.437,540.682,538.778,0.0
52588.0,STARLINK-3917,PAYLOAD,2024-02-29 14:46:04,15.08844969,0.0001363,53.217,196.954,97.9578,262.1569,7.7654e-05,9.48e-06,0.0,0 STARLINK-3917,1 52588U 22051BE  24060.61532682  .00000948  00000-0  77654-4 0  9997,2 52588  53.2170 196.9540 0001363  97.9578 262.1569 15.08844969100017,6917.865,95.437,540.673,538.787,0.0
52588.0,STARLINK-3917,PAYLOAD,2024-02-29 19:32:13,15.08848498,0.0001329,53.2172,196.0613,93.9746,266.1398,0.00011878,1.603e-05,0.0,0 STARLINK-3917,1 52588U 22051BE  24060.81404253  .00001603  00000-0  11878-3 0  9995,2 52588  53.2172 196.0613 0001329  93.9746 266.1398 15.08848498100112,6917.854,95.437,540.639,538.8,0.0
52588.0,STARLINK-3917,PAYLOAD,2024-03-01 01:53:47,15.08828171,0.0001582,53.2173,194.8727,89.0627,271.0547,-2.7522e-05,-7.26e-06,0.0,0 STARLINK-3917,1 52588U 22051BE  24061.07902021 -.00000726  00000-0 -27522-4 0  9991,2 52588  53.2173 194.8727 0001582  89.0627 271.0547 15.08828171100151,6917.917,95.438,540.876,538.687,0.0
